{
  "type": "FeatureCollection",
  "features": [
    {
      "type": "Feature",
      "properties": {
        "norad_id": 33913,
        "name": "COSMOS 2251 DEB",
        "group": "cosmos-2251-debris",
        "lat": 9.076860474909697,
        "lon": 175.71041778760772,
        "alt_km": 734.6965127935746,
        "timestamp": "2025-12-18T08:58:43.807782+00:00",
        "meta_object_name": "COSMOS 2251 DEB",
        "meta_object_id": "1993-036DS",
        "meta_epoch": "2025-12-17T21:52:39.601344",
        "meta_mean_motion": 14.48506753,
        "meta_eccentricity": 0.00481564,
        "meta_inclination": 74.0323,
        "meta_ra_of_asc_node": 173.955,
        "meta_arg_of_pericenter": 275.5671,
        "meta_mean_anomaly": 202.4025,
        "meta_ephemeris_type": 0,
        "meta_classification_type": "U",
        "meta_norad_cat_id": 33913,
        "meta_element_set_no": 999,
        "meta_rev_at_epoch": 88532,
        "meta_bstar": 0.00043303326,
        "meta_mean_motion_dot": 1.621e-05,
        "meta_mean_motion_ddot": 0,
        "tle_line1": "1 33913U 93036DS  25351.91156946  .00001621  00000+0  43303-3 0  9992",
        "tle_line2": "2 33913  74.0323 173.9550 0048156 275.5671 202.4025 14.48506753885321"
      },
      "geometry": {
        "type": "Point",
        "coordinates": [
          175.71041778760772,
          9.076860474909697
        ]
      }
    },
    {
      "type": "Feature",
      "properties": {
        "norad_id": 33914,
        "name": "COSMOS 2251 DEB",
        "group": "cosmos-2251-debris",
        "lat": -45.50375210250744,
        "lon": -157.3169831058327,
        "alt_km": 1105.7133230931713,
        "timestamp": "2025-12-18T08:58:43.807792+00:00",
        "meta_object_name": "COSMOS 2251 DEB",
        "meta_object_id": "1993-036DT",
        "meta_epoch": "2025-12-17T18:42:56.606976",
        "meta_mean_motion": 13.71987792,
        "meta_eccentricity": 0.030092,
        "meta_inclination": 74.0912,
        "meta_ra_of_asc_node": 6.7887,
        "meta_arg_of_pericenter": 108.6037,
        "meta_mean_anomaly": 61.9801,
        "meta_ephemeris_type": 0,
        "meta_classification_type": "U",
        "meta_norad_cat_id": 33914,
        "meta_element_set_no": 999,
        "meta_rev_at_epoch": 84150,
        "meta_bstar": 0.00021523188,
        "meta_mean_motion_dot": 2.5e-06,
        "meta_mean_motion_ddot": 0,
        "tle_line1": "1 33914U 93036DT  25351.77982184  .00000250  00000+0  21523-3 0  9995",
        "tle_line2": "2 33914  74.0912   6.7887 0300920 108.6037  61.9801 13.71987792841507"
      },
      "geometry": {
        "type": "Point",
        "coordinates": [
          -157.3169831058327,
          -45.50375210250744
        ]
      }
    },
    {
      "type": "Feature",
      "properties": {
        "norad_id": 33915,
        "name": "COSMOS 2251 DEB",
        "group": "cosmos-2251-debris",
        "lat": -6.142473755862296,
        "lon": -154.45369818635717,
        "alt_km": 753.6928487793921,
        "timestamp": "2025-12-18T08:58:43.807802+00:00",
        "meta_object_name": "COSMOS 2251 DEB",
        "meta_object_id": "1993-036DU",
        "meta_epoch": "2025-12-17T12:47:21.199200",
        "meta_mean_motion": 14.35093998,
        "meta_eccentricity": 0.01041884,
        "meta_inclination": 74.0434,
        "meta_ra_of_asc_node": 25.3229,
        "meta_arg_of_pericenter": 116.5904,
        "meta_mean_anomaly": 44.2011,
        "meta_ephemeris_type": 0,
        "meta_classification_type": "U",
        "meta_norad_cat_id": 33915,
        "meta_element_set_no": 999,
        "meta_rev_at_epoch": 87826,
        "meta_bstar": 0.0002953729,
        "meta_mean_motion_dot": 8.7e-06,
        "meta_mean_motion_ddot": 0,
        "tle_line1": "1 33915U 93036DU  25351.53288425  .00000870  00000+0  29537-3 0  9998",
        "tle_line2": "2 33915  74.0434  25.3229 0104188 116.5904  44.2011 14.35093998878260"
      },
      "geometry": {
        "type": "Point",
        "coordinates": [
          -154.45369818635717,
          -6.142473755862296
        ]
      }
    },
    {
      "type": "Feature",
      "properties": {
        "norad_id": 33916,
        "name": "COSMOS 2251 DEB",
        "group": "cosmos-2251-debris",
        "lat": 56.377941957376365,
        "lon": 56.79856393585809,
        "alt_km": 1185.4829589455903,
        "timestamp": "2025-12-18T08:58:43.807813+00:00",
        "meta_object_name": "COSMOS 2251 DEB",
        "meta_object_id": "1993-036DV",
        "meta_epoch": "2025-12-17T21:14:42.097344",
        "meta_mean_motion": 13.68619834,
        "meta_eccentricity": 0.03251177,
        "meta_inclination": 74.0524,
        "meta_ra_of_asc_node": 32.134,
        "meta_arg_of_pericenter": 203.1841,
        "meta_mean_anomaly": 331.2428,
        "meta_ephemeris_type": 0,
        "meta_classification_type": "U",
        "meta_norad_cat_id": 33916,
        "meta_element_set_no": 999,
        "meta_rev_at_epoch": 83961,
        "meta_bstar": 0.00032442781,
        "meta_mean_motion_dot": 3.8e-06,
        "meta_mean_motion_ddot": 0,
        "tle_line1": "1 33916U 93036DV  25351.88520946  .00000380  00000+0  32443-3 0  9990",
        "tle_line2": "2 33916  74.0524  32.1340 0325117 203.1841 331.2428 13.68619834839616"
      },
      "geometry": {
        "type": "Point",
        "coordinates": [
          56.79856393585809,
          56.377941957376365
        ]
      }
    },
    {
      "type": "Feature",
      "properties": {
        "norad_id": 33917,
        "name": "COSMOS 2251 DEB",
        "group": "cosmos-2251-debris",
        "lat": 28.566632176956603,
        "lon": -75.76813673626216,
        "alt_km": 881.9784140251295,
        "timestamp": "2025-12-18T08:58:43.807822+00:00",
        "meta_object_name": "COSMOS 2251 DEB",
        "meta_object_id": "1993-036DW",
        "meta_epoch": "2025-12-17T18:11:42.770688",
        "meta_mean_motion": 13.6936934,
        "meta_eccentricity": 0.03313106,
        "meta_inclination": 74.1071,
        "meta_ra_of_asc_node": 114.165,
        "meta_arg_of_pericenter": 214.0345,
        "meta_mean_anomaly": 143.913,
        "meta_ephemeris_type": 0,
        "meta_classification_type": "U",
        "meta_norad_cat_id": 33917,
        "meta_element_set_no": 999,
        "meta_rev_at_epoch": 83802,
        "meta_bstar": 0.00064788495,
        "meta_mean_motion_dot": 8.05e-06,
        "meta_mean_motion_ddot": 0,
        "tle_line1": "1 33917U 93036DW  25351.75813392  .00000805  00000+0  64788-3 0  9996",
        "tle_line2": "2 33917  74.1071 114.1650 0331310 214.0345 143.9130 13.69369340838029"
      },
      "geometry": {
        "type": "Point",
        "coordinates": [
          -75.76813673626216,
          28.566632176956603
        ]
      }
    },
    {
      "type": "Feature",
      "properties": {
        "norad_id": 33920,
        "name": "COSMOS 2251 DEB",
        "group": "cosmos-2251-debris",
        "lat": -54.56744246133137,
        "lon": 131.40114330624203,
        "alt_km": 689.7874771457591,
        "timestamp": "2025-12-18T08:58:43.807832+00:00",
        "meta_object_name": "COSMOS 2251 DEB",
        "meta_object_id": "1993-036DZ",
        "meta_epoch": "2025-12-17T05:32:46.607136",
        "meta_mean_motion": 14.58349285,
        "meta_eccentricity": 0.00380878,
        "meta_inclination": 74.0614,
        "meta_ra_of_asc_node": 289.8915,
        "meta_arg_of_pericenter": 295.8036,
        "meta_mean_anomaly": 63.9201,
        "meta_ephemeris_type": 0,
        "meta_classification_type": "U",
        "meta_norad_cat_id": 33920,
        "meta_element_set_no": 999,
        "meta_rev_at_epoch": 88180,
        "meta_bstar": 0.0014019237,
        "meta_mean_motion_dot": 6.531e-05,
        "meta_mean_motion_ddot": 0,
        "tle_line1": "1 33920U 93036DZ  25351.23109499  .00006531  00000+0  14019-2 0  9992",
        "tle_line2": "2 33920  74.0614 289.8915 0038087 295.8036  63.9201 14.58349285881807"
      },
      "geometry": {
        "type": "Point",
        "coordinates": [
          131.40114330624203,
          -54.56744246133137
        ]
      }
    },
    {
      "type": "Feature",
      "properties": {
        "norad_id": 33922,
        "name": "COSMOS 2251 DEB",
        "group": "cosmos-2251-debris",
        "lat": -20.724871877318062,
        "lon": -36.587878148214756,
        "alt_km": 720.523402803452,
        "timestamp": "2025-12-18T08:58:43.807842+00:00",
        "meta_object_name": "COSMOS 2251 DEB",
        "meta_object_id": "1993-036EB",
        "meta_epoch": "2025-12-17T21:09:58.701024",
        "meta_mean_motion": 14.49526156,
        "meta_eccentricity": 0.0023227,
        "meta_inclination": 74.0467,
        "meta_ra_of_asc_node": 138.1213,
        "meta_arg_of_pericenter": 248.1869,
        "meta_mean_anomaly": 266.148,
        "meta_ephemeris_type": 0,
        "meta_classification_type": "U",
        "meta_norad_cat_id": 33922,
        "meta_element_set_no": 999,
        "meta_rev_at_epoch": 88652,
        "meta_bstar": 0.00039216993,
        "meta_mean_motion_dot": 1.481e-05,
        "meta_mean_motion_ddot": 0,
        "tle_line1": "1 33922U 93036EB  25351.88192941  .00001481  00000+0  39217-3 0  9996",
        "tle_line2": "2 33922  74.0467 138.1213 0023227 248.1869 266.1480 14.49526156886521"
      },
      "geometry": {
        "type": "Point",
        "coordinates": [
          -36.587878148214756,
          -20.724871877318062
        ]
      }
    }
  ]
}